// ⚠️ AUTO-GENERATED FILE — DO NOT EDIT BY HAND.
// Generated from the database editor. Edit data via the editor UI, then regenerate.

import { IOrbit } from '@/core/models/types'

export const Orbits: IOrbit[] = [
  { id: 1, actorId: 2, semiMajorAxis: 1.015601417621483, eccentricity: 0.01230420399763895, inclination: 0.014135427418053, argOfPeriapsis: 1.078087167575372, ascendingNode: 131.3721358356782, meanAnomalyAtEpoch: 78.21567153449494 },
  { id: 2, actorId: 3, semiMajorAxis: 39.48888827027903, eccentricity: 0.2490160934326204, inclination: 17.14068039292916, argOfPeriapsis: 113.7738200595554, ascendingNode: 110.3009958695043, meanAnomalyAtEpoch: 48.68258169510125 },
  { id: 3, actorId: 4, semiMajorAxis: 0.008711991402682097, eccentricity: 0.1573621288870041, inclination: 1.415516823547642, argOfPeriapsis: 183.7072799690148, ascendingNode: 109.6044971242844, meanAnomalyAtEpoch: 270.1775106938757 },
  { id: 4, actorId: 5, semiMajorAxis: 0.3870984701463686, eccentricity: 0.2056312911931819, inclination: 7.003578203679799, argOfPeriapsis: 29.19216956787836, ascendingNode: 48.30112279108046, meanAnomalyAtEpoch: 90.78989315913019 },
  { id: 5, actorId: 6, semiMajorAxis: 0.7233252229901025, eccentricity: 0.006751907969864723, inclination: 3.394434609923295, argOfPeriapsis: 54.79854817958076, ascendingNode: 76.61630839251018, meanAnomalyAtEpoch: 8.70215692138923 },
  { id: 6, actorId: 7, semiMajorAxis: 3.124285376730603e-5, eccentricity: 0.05617649722814247, inclination: 5.277301391898843, argOfPeriapsis: 109.3273092914739, ascendingNode: 33.71301783530973, meanAnomalyAtEpoch: 97.89359527330966 },
  { id: 7, actorId: 8, semiMajorAxis: 1.533379932426865, eccentricity: 0.09177002627547723, inclination: 1.848437707858971, argOfPeriapsis: 289.1403516248217, ascendingNode: 49.52420185140623, meanAnomalyAtEpoch: 157.4682637864123 },
  { id: 8, actorId: 9, semiMajorAxis: 2.767310129303423, eccentricity: 0.07886606256402912, inclination: 10.58639765537056, argOfPeriapsis: 73.4686509453119, ascendingNode: 80.25853087926154, meanAnomalyAtEpoch: 29.42043932157666 },
  { id: 9, actorId: 10, semiMajorAxis: 5.184950080834474, eccentricity: 0.04683671524202863, inclination: 1.303489215996807, argOfPeriapsis: 272.76005173184, ascendingNode: 100.5062332030465, meanAnomalyAtEpoch: 8.38471901544823 },
  { id: 10, actorId: 11, semiMajorAxis: 9.538069361500918, eccentricity: 0.05500915585808187, inclination: 2.487736019733611, argOfPeriapsis: 338.4907240487206, ascendingNode: 113.5920965911824, meanAnomalyAtEpoch: 242.8301001217243 },
  { id: 11, actorId: 12, semiMajorAxis: 19.18795881993872, eccentricity: 0.04727283774789717, inclination: 0.7721255234387229, argOfPeriapsis: 97.11199092848462, ascendingNode: 74.0035088011043, meanAnomalyAtEpoch: 241.9789679224791 },
  { id: 12, actorId: 13, semiMajorAxis: 30.07414301520739, eccentricity: 0.00874738973637658, inclination: 1.770231254744001, argOfPeriapsis: 272.5291303408503, ascendingNode: 131.7827982567603, meanAnomalyAtEpoch: 311.4867601538639 },
  { id: 13, actorId: 14, semiMajorAxis: 1.424922488074943e-5, eccentricity: 1.513645144197374e-4, inclination: 112.88795512431, argOfPeriapsis: 354.7156039222869, ascendingNode: 227.3927766163783, meanAnomalyAtEpoch: 52.57727266003623 },
  { id: 14, actorId: 15, semiMajorAxis: 42.90702155272246, eccentricity: 0.1999538534122253, inclination: 28.21006341432563, argOfPeriapsis: 240.4781854260978, ascendingNode: 122.0136091863266, meanAnomalyAtEpoch: 219.6310505561194 },
  { id: 15, actorId: 16, semiMajorAxis: 45.27174581361132, eccentricity: 0.1660010762933981, inclination: 29.02039045994402, argOfPeriapsis: 295.9193551113156, ascendingNode: 79.34779518762248, meanAnomalyAtEpoch: 167.6461239736858 },
  { id: 16, actorId: 17, semiMajorAxis: 68.14686260277956, eccentricity: 0.4320832797908185, inclination: 43.75695362578097, argOfPeriapsis: 150.9618557241282, ascendingNode: 36.07217566239468, meanAnomalyAtEpoch: 208.9430642429761 },
  { id: 17, actorId: 18, semiMajorAxis: 534.8803422684762, eccentricity: 0.8572051652452971, inclination: 11.93013045961979, argOfPeriapsis: 310.8597815541983, ascendingNode: 144.2705583371275, meanAnomalyAtEpoch: 358.4852142405097 },
  { id: 18, actorId: 19, semiMajorAxis: 0.002540061764143003, eccentricity: 0.05617649722815178, inclination: 5.277301391898843, argOfPeriapsis: 289.3273092914252, ascendingNode: 33.71301783530977, meanAnomalyAtEpoch: 97.89359527335836 },
  { id: 19, actorId: 20, semiMajorAxis: 0.00282218832294024, eccentricity: 0.00496146144385352, inclination: 2.195143520626085, argOfPeriapsis: 257.3296038386765, ascendingNode: 336.8644031474224, meanAnomalyAtEpoch: 23.72487513539017 },
  { id: 20, actorId: 21, semiMajorAxis: 0.004487227724459941, eccentricity: 0.009273203940409551, inclination: 2.400596891861762, argOfPeriapsis: 83.60274788350202, ascendingNode: 327.4255214683653, meanAnomalyAtEpoch: 194.1256315037582 },
  { id: 21, actorId: 22, semiMajorAxis: 0.007153745476462586, eccentricity: 0.002041271271358261, inclination: 2.324748286426879, argOfPeriapsis: 342.2344264788978, ascendingNode: 339.9144987339523, meanAnomalyAtEpoch: 186.468423823466 },
  { id: 22, actorId: 23, semiMajorAxis: 0.01258517683015779, eccentricity: 0.007224368755880143, inclination: 1.955419441348968, argOfPeriapsis: 31.45618093014828, ascendingNode: 337.0223066759345, meanAnomalyAtEpoch: 94.48113489887868 },
  { id: 23, actorId: 24, semiMajorAxis: 0.001239165885435729, eccentricity: 0.01950436024693915, inclination: 27.95621943188808, argOfPeriapsis: 346.6672914910517, ascendingNode: 166.1740298373831, meanAnomalyAtEpoch: 302.7023937857788 },
  { id: 24, actorId: 25, semiMajorAxis: 0.001590768765918404, eccentricity: 0.0040140443446043, inclination: 28.06322790202351, argOfPeriapsis: 139.9095977238855, ascendingNode: 169.5182923367429, meanAnomalyAtEpoch: 187.7354952325927 },
  { id: 25, actorId: 26, semiMajorAxis: 0.00196852016166366, eccentricity: 4.906027912411796e-4, inclination: 29.04886167878648, argOfPeriapsis: 319.7000851891221, ascendingNode: 168.5967536524158, meanAnomalyAtEpoch: 267.5818565377689 },
  { id: 26, actorId: 27, semiMajorAxis: 0.002520716487003145, eccentricity: 0.001772672694750518, inclination: 28.03649564874407, argOfPeriapsis: 172.5501166715131, ascendingNode: 169.4704183703563, meanAnomalyAtEpoch: 55.56262055816524 },
  { id: 27, actorId: 28, semiMajorAxis: 0.003527359416096158, eccentricity: 0.0017382839097025, inclination: 28.10246108935473, argOfPeriapsis: 155.2471560709482, ascendingNode: 170.1822622421989, meanAnomalyAtEpoch: 337.9116290699779 },
  { id: 28, actorId: 29, semiMajorAxis: 0.008166252522600009, eccentricity: 0.02873938088882117, inclination: 27.70963174933997, argOfPeriapsis: 176.5416296955062, ascendingNode: 169.0631881774317, meanAnomalyAtEpoch: 97.99308114269664 },
  { id: 29, actorId: 30, semiMajorAxis: 0.02380451044016261, eccentricity: 0.02860016998904521, inclination: 17.06111561628991, argOfPeriapsis: 231.0089498253412, ascendingNode: 138.888266762586, meanAnomalyAtEpoch: 316.7927643486099 },
  { id: 30, actorId: 31, semiMajorAxis: 8.678811821407167e-4, eccentricity: 0.001205911847411715, inclination: 101.9532944431624, argOfPeriapsis: 3.960967232758146, ascendingNode: 166.3893180256808, meanAnomalyAtEpoch: 92.25490063516435 },
  { id: 31, actorId: 32, semiMajorAxis: 0.001276471616533729, eccentricity: 2.474425645652764e-4, inclination: 97.69555766645671, argOfPeriapsis: 174.556061920439, ascendingNode: 167.6713791756605, meanAnomalyAtEpoch: 192.0572192997519 },
  { id: 32, actorId: 33, semiMajorAxis: 0.001778163507702681, eccentricity: 0.003857053820182882, inclination: 97.70726827089726, argOfPeriapsis: 58.49026540934344, ascendingNode: 167.6986943271656, meanAnomalyAtEpoch: 4.144873237937239 },
  { id: 33, actorId: 34, semiMajorAxis: 0.002916275300662327, eccentricity: 0.002494144853515723, inclination: 97.77101053663385, argOfPeriapsis: 238.1946120053947, ascendingNode: 167.6312871672664, meanAnomalyAtEpoch: 322.281947804563 },
  { id: 34, actorId: 35, semiMajorAxis: 0.003900290723343614, eccentricity: 8.753966376853584e-4, inclination: 97.9099012720188, argOfPeriapsis: 152.9023950256606, ascendingNode: 167.7149941111006, meanAnomalyAtEpoch: 294.4471941367638 },
  { id: 35, actorId: 36, semiMajorAxis: 0.002370964598801408, eccentricity: 3.113005146619756e-5, inclination: 129.2220646598841, argOfPeriapsis: 263.5056322078647, ascendingNode: 221.9467611844911, meanAnomalyAtEpoch: 348.455669539342 },
  { id: 36, actorId: 37, semiMajorAxis: 1.167384040646722e-4, eccentricity: 1.525988324897723e-4, inclination: 112.887943699595, argOfPeriapsis: 166.9975140679648, ascendingNode: 227.3927902163876, meanAnomalyAtEpoch: 60.2945968046855 },
  { id: 37, actorId: 38, semiMajorAxis: 2.491642854253084e-4, eccentricity: 0.006074623100450718, inclination: 61.60969712513381, argOfPeriapsis: 155.4079313960994, ascendingNode: 139.0978372358126, meanAnomalyAtEpoch: 203.947910923442 },
  { id: 38, actorId: 44, semiMajorAxis: 5.0159, eccentricity: 0.35, inclination: 14.8, argOfPeriapsis: 41.168, ascendingNode: 125.452, meanAnomalyAtEpoch: 27.276 },
  { id: 39, actorId: 57, semiMajorAxis: 0.0159, eccentricity: 0.35, inclination: 0.2, argOfPeriapsis: 41.168, ascendingNode: 125.452, meanAnomalyAtEpoch: 127.276 },
  { id: 40, actorId: 60, semiMajorAxis: 0.137, eccentricity: 0.25, inclination: 2.5, argOfPeriapsis: 47.8, ascendingNode: 94.2, meanAnomalyAtEpoch: 22.1 },
  { id: 41, actorId: 61, semiMajorAxis: 0.145, eccentricity: 0.3, inclination: 2.5, argOfPeriapsis: 213.5, ascendingNode: 94.2, meanAnomalyAtEpoch: 335.4 },
  { id: 42, actorId: 62, semiMajorAxis: 1.5, eccentricity: 0.05, inclination: 2.1, argOfPeriapsis: 259.1, ascendingNode: 27.4, meanAnomalyAtEpoch: 77.3 },
  { id: 43, actorId: 63, semiMajorAxis: 5.2, eccentricity: 0.125, inclination: 1.7, argOfPeriapsis: 30.5, ascendingNode: 240.3, meanAnomalyAtEpoch: 70.8 },
